[{"OBJECT_NAME":"RANGE-A","OBJECT_ID":"2018-099R","EPOCH":"2026-03-09T16:56:29.908608","MEAN_MOTION":15.1245864,"ECCENTRICITY":0.00096737,"INCLINATION":97.4107,"RA_OF_ASC_NODE":114.1927,"ARG_OF_PERICENTER":340.4473,"MEAN_ANOMALY":19.6386,"EPHEMERIS_TYPE":0,"CLASSIFICATION_TYPE":"U","NORAD_CAT_ID":43773,"ELEMENT_SET_NO":999,"REV_AT_EPOCH":39745,"BSTAR":0.00032165687,"MEAN_MOTION_DOT":5.536e-5,"MEAN_MOTION_DDOT":0},{"OBJECT_NAME":"STARLINK-4140","OBJECT_ID":"2022-086T","EPOCH":"2026-03-09T15:26:25.197216","MEAN_MOTION":15.08836749,"ECCENTRICITY":0.0001174,"INCLINATION":53.217,"RA_OF_ASC_NODE":193.9708,"ARG_OF_PERICENTER":93.4607,"MEAN_ANOMALY":266.652,"EPHEMERIS_TYPE":0,"CLASSIFICATION_TYPE":"U","NORAD_CAT_ID":53259,"ELEMENT_SET_NO":999,"REV_AT_EPOCH":20106,"BSTAR":9.1045e-6,"MEAN_MOTION_DOT":-1.43e-6,"MEAN_MOTION_DDOT":0}]
