RANGE-A                 
1 43773U 18099R   26068.70590171  .00005536  00000+0  32166-3 0  9992
2 43773  97.4107 114.1927 0009674 340.4473  19.6386 15.12458640397457
STARLINK-4140           
1 53259U 22086T   26068.64334719 -.00000143  00000+0  91045-5 0  9993
2 53259  53.2170 193.9708 0001174  93.4607 266.6520 15.08836749201060
